{
  "type": "FeatureCollection",
  "features": [
    {
      "type": "Feature",
      "properties": {
        "norad_id": 66612,
        "name": "STARLINK-36039",
        "group": "last-30-days",
        "lat": -40.92119472269742,
        "lon": 83.5544300611182,
        "alt_km": 425.40962604984543,
        "timestamp": "2025-12-12T07:43:19.258593+00:00",
        "meta_object_name": "STARLINK-36039",
        "meta_object_id": "2025-270AA",
        "meta_epoch": "2025-12-11T20:00:01.999872",
        "meta_mean_motion": 15.49875379,
        "meta_eccentricity": 0.0001852,
        "meta_inclination": 42.9996,
        "meta_ra_of_asc_node": 197.9245,
        "meta_arg_of_pericenter": 272.3714,
        "meta_mean_anomaly": 135.1793,
        "meta_ephemeris_type": 0,
        "meta_classification_type": "U",
        "meta_norad_cat_id": 66612,
        "meta_element_set_no": 999,
        "meta_rev_at_epoch": 425,
        "meta_bstar": -0.040586648,
        "meta_mean_motion_dot": -0.02066189,
        "meta_mean_motion_ddot": 0,
        "tle_line1": "1 66612U 25270AA  25345.83335648 -.02066189  00000+0 -40587-1 0  9994",
        "tle_line2": "2 66612  42.9996 197.9245 0001852 272.3714 135.1793 15.49875379  4259"
      },
      "geometry": {
        "type": "Point",
        "coordinates": [
          83.5544300611182,
          -40.92119472269742
        ]
      }
    },
    {
      "type": "Feature",
      "properties": {
        "norad_id": 66613,
        "name": "STARLINK-36037",
        "group": "last-30-days",
        "lat": -42.03915008483174,
        "lon": 90.43723104249766,
        "alt_km": 416.9797486272464,
        "timestamp": "2025-12-12T07:43:19.258605+00:00",
        "meta_object_name": "STARLINK-36037",
        "meta_object_id": "2025-270AB",
        "meta_epoch": "2025-12-11T20:00:01.999872",
        "meta_mean_motion": 15.50529893,
        "meta_eccentricity": 0.00020385,
        "meta_inclination": 42.9995,
        "meta_ra_of_asc_node": 197.919,
        "meta_arg_of_pericenter": 263.1895,
        "meta_mean_anomaly": 146.5016,
        "meta_ephemeris_type": 0,
        "meta_classification_type": "U",
        "meta_norad_cat_id": 66613,
        "meta_element_set_no": 999,
        "meta_rev_at_epoch": 425,
        "meta_bstar": 0.00095583213,
        "meta_mean_motion_dot": 0.00056038,
        "meta_mean_motion_ddot": 0,
        "tle_line1": "1 66613U 25270AB  25345.83335648  .00056038  00000+0  95583-3 0  9991",
        "tle_line2": "2 66613  42.9995 197.9190 0002038 263.1895 146.5016 15.50529893  4256"
      },
      "geometry": {
        "type": "Point",
        "coordinates": [
          90.43723104249766,
          -42.03915008483174
        ]
      }
    },
    {
      "type": "Feature",
      "properties": {
        "norad_id": 66614,
        "name": "STARLINK-36040",
        "group": "last-30-days",
        "lat": -42.581109033079564,
        "lon": 95.51193163269639,
        "alt_km": 417.2450224855802,
        "timestamp": "2025-12-12T07:43:19.258618+00:00",
        "meta_object_name": "STARLINK-36040",
        "meta_object_id": "2025-270AC",
        "meta_epoch": "2025-12-11T20:00:01.999872",
        "meta_mean_motion": 15.50497405,
        "meta_eccentricity": 0.00018102,
        "meta_inclination": 42.9994,
        "meta_ra_of_asc_node": 197.9102,
        "meta_arg_of_pericenter": 275.2134,
        "meta_mean_anomaly": 138.3289,
        "meta_ephemeris_type": 0,
        "meta_classification_type": "U",
        "meta_norad_cat_id": 66614,
        "meta_element_set_no": 999,
        "meta_rev_at_epoch": 409,
        "meta_bstar": 0.0011982271,
        "meta_mean_motion_dot": 0.00070383,
        "meta_mean_motion_ddot": 0,
        "tle_line1": "1 66614U 25270AC  25345.83335648  .00070383  00000+0  11982-2 0  9991",
        "tle_line2": "2 66614  42.9994 197.9102 0001810 275.2134 138.3289 15.50497405  4092"
      },
      "geometry": {
        "type": "Point",
        "coordinates": [
          95.51193163269639,
          -42.581109033079564
        ]
      }
    },
    {
      "type": "Feature",
      "properties": {
        "norad_id": 66615,
        "name": "STARLINK-35988",
        "group": "last-30-days",
        "lat": -42.33693475327777,
        "lon": 92.95289521370589,
        "alt_km": 417.38522111115617,
        "timestamp": "2025-12-12T07:43:19.258630+00:00",
        "meta_object_name": "STARLINK-35988",
        "meta_object_id": "2025-270AD",
        "meta_epoch": "2025-12-11T20:00:01.999872",
        "meta_mean_motion": 15.50489003,
        "meta_eccentricity": 0.00015607,
        "meta_inclination": 42.9994,
        "meta_ra_of_asc_node": 197.9152,
        "meta_arg_of_pericenter": 255.8124,
        "meta_mean_anomaly": 155.8281,
        "meta_ephemeris_type": 0,
        "meta_classification_type": "U",
        "meta_norad_cat_id": 66615,
        "meta_element_set_no": 999,
        "meta_rev_at_epoch": 409,
        "meta_bstar": 0.0012024471,
        "meta_mean_motion_dot": 0.00070612,
        "meta_mean_motion_ddot": 0,
        "tle_line1": "1 66615U 25270AD  25345.83335648  .00070612  00000+0  12024-2 0  9995",
        "tle_line2": "2 66615  42.9994 197.9152 0001560 255.8124 155.8281 15.50489003  4094"
      },
      "geometry": {
        "type": "Point",
        "coordinates": [
          92.95289521370589,
          -42.33693475327777
        ]
      }
    },
    {
      "type": "Feature",
      "properties": {
        "norad_id": 66616,
        "name": "STARLINK-35391",
        "group": "last-30-days",
        "lat": -42.76866323610257,
        "lon": 98.10395090545715,
        "alt_km": 417.21641597020243,
        "timestamp": "2025-12-12T07:43:19.258640+00:00",
        "meta_object_name": "STARLINK-35391",
        "meta_object_id": "2025-270AE",
        "meta_epoch": "2025-12-11T20:00:01.999872",
        "meta_mean_motion": 15.50495137,
        "meta_eccentricity": 0.00018234,
        "meta_inclination": 42.9995,
        "meta_ra_of_asc_node": 197.9062,
        "meta_arg_of_pericenter": 273.983,
        "meta_mean_anomaly": 141.4775,
        "meta_ephemeris_type": 0,
        "meta_classification_type": "U",
        "meta_norad_cat_id": 66616,
        "meta_element_set_no": 999,
        "meta_rev_at_epoch": 436,
        "meta_bstar": 0.0013086995,
        "meta_mean_motion_dot": 0.00076962,
        "meta_mean_motion_ddot": 0,
        "tle_line1": "1 66616U 25270AE  25345.83335648  .00076962  00000+0  13087-2 0  9990",
        "tle_line2": "2 66616  42.9995 197.9062 0001823 273.9830 141.4775 15.50495137  4367"
      },
      "geometry": {
        "type": "Point",
        "coordinates": [
          98.10395090545715,
          -42.76866323610257
        ]
      }
    },
    {
      "type": "Feature",
      "properties": {
        "norad_id": 66617,
        "name": "STARLINK-35940",
        "group": "last-30-days",
        "lat": -52.981902650847665,
        "lon": 105.37485675456854,
        "alt_km": 417.5249279816808,
        "timestamp": "2025-12-12T07:43:19.258653+00:00",
        "meta_object_name": "STARLINK-35940",
        "meta_object_id": "2025-271A",
        "meta_epoch": "2025-12-11T20:00:01.999872",
        "meta_mean_motion": 15.53789142,
        "meta_eccentricity": 8.859e-05,
        "meta_inclination": 53.1599,
        "meta_ra_of_asc_node": 191.5831,
        "meta_arg_of_pericenter": 91.8825,
        "meta_mean_anomaly": 330.2844,
        "meta_ephemeris_type": 0,
        "meta_classification_type": "U",
        "meta_norad_cat_id": 66617,
        "meta_element_set_no": 999,
        "meta_rev_at_epoch": 409,
        "meta_bstar": -0.035273253,
        "meta_mean_motion_dot": -0.02053598,
        "meta_mean_motion_ddot": 0,
        "tle_line1": "1 66617U 25271A   25345.83335648 -.02053598  00000+0 -35273-1 0  9996",
        "tle_line2": "2 66617  53.1599 191.5831 0000885  91.8825 330.2844 15.53789142  4094"
      },
      "geometry": {
        "type": "Point",
        "coordinates": [
          105.37485675456854,
          -52.981902650847665
        ]
      }
    },
    {
      "type": "Feature",
      "properties": {
        "norad_id": 66618,
        "name": "STARLINK-35970",
        "group": "last-30-days",
        "lat": -25.890416794944393,
        "lon": 167.78282458989295,
        "alt_km": 415.92309631188346,
        "timestamp": "2025-12-12T07:43:19.258663+00:00",
        "meta_object_name": "STARLINK-35970",
        "meta_object_id": "2025-271B",
        "meta_epoch": "2025-12-11T20:00:01.999872",
        "meta_mean_motion": 15.53791312,
        "meta_eccentricity": 0.00010588,
        "meta_inclination": 53.1589,
        "meta_ra_of_asc_node": 191.4708,
        "meta_arg_of_pericenter": 79.5652,
        "meta_mean_anomaly": 35.9217,
        "meta_ephemeris_type": 0,
        "meta_classification_type": "U",
        "meta_norad_cat_id": 66618,
        "meta_element_set_no": 999,
        "meta_rev_at_epoch": 409,
        "meta_bstar": -0.0353173,
        "meta_mean_motion_dot": -0.02056136,
        "meta_mean_motion_ddot": 0,
        "tle_line1": "1 66618U 25271B   25345.83335648 -.02056136  00000+0 -35317-1 0  9997",
        "tle_line2": "2 66618  53.1589 191.4708 0001058  79.5652  35.9217 15.53791312  4095"
      },
      "geometry": {
        "type": "Point",
        "coordinates": [
          167.78282458989295,
          -25.890416794944393
        ]
      }
    }
  ]
}